[{"OBJECT_NAME":"AL MUNTHER","OBJECT_ID":"2025-052AG","EPOCH":"2026-03-09T15:29:23.207136","MEAN_MOTION":15.28381521,"ECCENTRICITY":0.0008027,"INCLINATION":97.4001,"RA_OF_ASC_NODE":323.9152,"ARG_OF_PERICENTER":130.7043,"MEAN_ANOMALY":229.4895,"EPHEMERIS_TYPE":0,"CLASSIFICATION_TYPE":"U","NORAD_CAT_ID":63240,"ELEMENT_SET_NO":999,"REV_AT_EPOCH":5479,"BSTAR":0.00065015,"MEAN_MOTION_DOT":0.00017933,"MEAN_MOTION_DDOT":0},{"OBJECT_NAME":"STARLINK-35765","OBJECT_ID":"2025-294M","EPOCH":"2026-03-09T22:03:21.206016","MEAN_MOTION":15.27612034,"ECCENTRICITY":0.00016604,"INCLINATION":43.0031,"RA_OF_ASC_NODE":36.8289,"ARG_OF_PERICENTER":239.2086,"MEAN_ANOMALY":120.8602,"EPHEMERIS_TYPE":0,"CLASSIFICATION_TYPE":"U","NORAD_CAT_ID":67041,"ELEMENT_SET_NO":999,"REV_AT_EPOCH":1483,"BSTAR":0.0013153954,"MEAN_MOTION_DOT":0.00036148,"MEAN_MOTION_DDOT":0}]
